# From MPC106342
C/1995 O1 (Hale-Bopp),e,88.9850,283.3718,130.6061,180.0711,0.0004079,0.99493439,0.0000,03/29.6812/1997,2000,g -2.0,4.0
# From NK 1615
P/1996 R2 (Lagerkvist),e,2.6003,40.0409,333.2952,3.774774,0.1343902,0.31390069,66.1839,06/18.0/2020,2000,g 11.5,4.0
# From MPC 30063
P/1997 B1 (Kobayashi),e,12.3400,328.8896,183.3825,8.562310,0.0393385,0.76005481,334.4758,06/18.0/2020,2000,g 15.0,2.0
# From MPC 75703
P/1998 VS24 (LINEAR),e,5.0245,159.0301,244.7211,4.530510,0.1022077,0.24177704,90.1470,06/18.0/2020,2000,g 13.0,2.0
# From NK 731
P/1999 RO28 (LONEOS),e,7.5661,137.8824,231.2743,3.426693,0.1553786,0.67194528,55.6185,06/18.0/2020,2000,g 20.0,2.0
# From MPC 75704
P/1999 XN120 (Catalina),e,5.0296,285.2965,161.9432,4.179091,0.1153669,0.21046376,127.2227,06/18.0/2020,2000,g 13.5,2.0
# From NK 744
P/2000 R2 (LINEAR),e,11.6836,160.3006,176.4936,3.465376,0.1527842,0.53151340,56.0171,06/18.0/2020,2000,g 18.0,4.0
# From MPC 43019
P/2001 H5 (NEAT),e,8.3681,328.6872,224.8761,6.098275,0.0654476,0.59891690,111.4460,06/18.0/2020,2000,g 12.0,4.0
# From MPC 75704
P/2001 Q6 (NEAT),e,56.8956,22.1059,42.9604,7.948541,0.0439818,0.82269655,300.5642,06/18.0/2020,2000,g 13.5,4.0
# From MPC 47727
P/2002 EJ57 (LINEAR),e,4.9757,330.3427,167.3267,6.473992,0.0598337,0.59316218,43.6916,06/18.0/2020,2000,g 12.5,4.0
# From MPC109588
P/2002 T5 (LINEAR),e,30.8531,123.0883,326.7933,7.002162,0.0531932,0.43767192,330.9638,06/18.0/2020,2000,g  8.0,4.0
# From MPC109588
P/2002 T6 (NEAT-LINEAR),e,10.8336,206.6028,219.4977,7.664034,0.0464535,0.55964968,290.4300,06/18.0/2020,2000,g 10.5,4.0
# From MPC 75007
C/2002 VQ94 (LINEAR),e,70.5333,34.9800,100.1947,186.6899,0.0003864,0.96338275,2.0305,06/18.0/2020,2000,g  9.5,2.0
# From MPC 50354
P/2003 F2 (NEAT),e,11.6055,359.0884,191.8562,6.485635,0.0596727,0.54202703,13.0626,06/18.0/2020,2000,g 16.5,2.0
# From MPC 50139
P/2003 QX29 (NEAT),e,11.3899,264.6019,37.3359,8.036403,0.0432625,0.47289563,278.9406,06/18.0/2020,2000,g  8.5,4.0
# From MPC105235
P/2003 T12 (SOHO),e,11.0160,174.5747,219.7717,2.586139,0.2369879,0.76960927,9.9874,06/18.0/2020,2000,g 17.0,4.0
# From MPC 82312
P/2004 A1 (LONEOS),e,10.5517,124.8490,21.5078,7.952054,0.0439527,0.30950542,254.0469,06/18.0/2020,2000,g  6.5,4.0
# From MPC 54558
P/2004 DO29 (Spacewatch-LINEAR),e,14.5313,147.3878,40.7586,7.280741,0.0501696,0.44152935,287.3750,06/18.0/2020,2000,g 13.5,2.0
# From MPC 54823
P/2004 FY140 (LINEAR),e,2.1348,326.7627,242.4846,4.900453,0.0908552,0.16892829,162.5246,06/18.0/2020,2000,g 12.5,2.0
# From MPC 53304
P/2004 R3 (LINEAR-NEAT),e,12.8163,305.4995,39.3908,4.779962,0.0943121,0.26076092,315.6256,06/18.0/2020,2000,g 14.5,4.0
# From MPC 55521
P/2004 V3 (Siding Spring),e,50.4248,356.1101,322.2623,7.146388,0.0515910,0.44627139,295.4185,06/18.0/2020,2000,g 11.5,4.0
# From MPC 75705
P/2004 V5 (LINEAR-Hill),e,19.3478,47.7557,87.8515,7.972986,0.0437797,0.44358453,245.3241,06/18.0/2020,2000,g  8.0,4.0
# From MPC 54164
P/2005 E1 (Tubbiolo),e,4.2637,335.5789,194.1742,7.035144,0.0528195,0.37529089,296.6586,06/18.0/2020,2000,g 10.0,4.0
# From MPC 54823
P/2005 GF8 (LONEOS),e,1.1935,314.8378,285.3418,5.875137,0.0692113,0.51842468,18.1129,06/18.0/2020,2000,g 11.5,4.0
# From MPC 79019
P/2005 J1 (McNaught),e,31.7692,268.7973,338.9478,3.569252,0.1461632,0.57005646,89.7719,06/18.0/2020,2000,g 16.5,4.0
# From MPC 74246
P/2005 L1 (McNaught),e,7.7385,138.2468,149.6528,3.975761,0.1243294,0.20933133,297.5345,06/18.0/2020,2000,g  9.5,4.0
# From MPC 75706
P/2005 S2 (Skiff),e,3.1356,161.1868,229.1803,8.019068,0.0434028,0.19647731,223.7894,06/18.0/2020,2000,g  7.5,4.0
# From MPC 75706
P/2005 SB216 (LONEOS),e,24.0647,1.2717,83.4092,7.124944,0.0518241,0.46301071,254.0980,06/18.0/2020,2000,g 12.0,2.0
# From MPC 55717
P/2005 T2 (Christensen),e,8.2927,260.1575,58.8041,3.846625,0.1306425,0.41653853,9.2288,06/18.0/2020,2000,g 14.5,4.0
# From MPC 73461
P/2005 T3 (Read),e,6.2261,27.7706,7.2131,7.573411,0.0472897,0.17357790,253.0377,06/18.0/2020,2000,g  9.0,4.0
# From MPC 73461
P/2005 T4 (SWAN),e,160.1560,25.6023,41.5066,9.360309,0.0344167,0.93007154,185.0728,06/18.0/2020,2000,g 15.0,4.0
# From MPC 75706
P/2005 T5 (Broughton),e,21.3464,57.0130,304.4945,7.293115,0.0500420,0.55170066,268.7648,06/18.0/2020,2000,g 11.0,4.0
# From MPC 56954
P/2005 W3 (Kowalski),e,16.4133,210.1131,200.5925,6.336910,0.0617857,0.54362908,331.6085,06/18.0/2020,2000,g 12.0,4.0
# From MPC 75706
P/2005 XA54 (LONEOS-Hill),e,17.1185,143.6728,15.1473,6.051312,0.0662109,0.71016171,345.0828,06/18.0/2020,2000,g 14.0,4.0
# From MPC 75706
P/2005 Y2 (McNaught),e,19.1076,94.5169,194.1399,6.367697,0.0613381,0.46909870,352.3108,06/18.0/2020,2000,g  9.0,4.0
# From MPC 56954
P/2006 F4 (Spacewatch),e,12.3888,183.9513,31.2442,3.529519,0.1486383,0.33900512,47.5794,06/18.0/2020,2000,g 15.0,4.0
# From MPC 58118
P/2006 H1 (McNaught),e,12.8051,359.8916,309.2799,5.770947,0.0710941,0.58019210,13.7556,06/18.0/2020,2000,g 12.5,4.0
# From MPC 75707
P/2006 HR30 (Siding Spring),e,31.8317,309.8974,117.2985,7.811266,0.0451463,0.84180248,222.7405,06/18.0/2020,2000,g 11.0,4.0
# From MPC 75707
P/2006 S4 (Christensen),e,39.5404,36.1017,305.1586,6.307832,0.0622134,0.50769591,324.1737,06/18.0/2020,2000,g 11.0,4.0
# From MPC 75707
P/2007 A2 (Christensen),e,26.4876,300.9059,186.7910,6.321649,0.0620095,0.55744771,304.5270,06/18.0/2020,2000,g 13.5,4.0
# From MPC 59319
P/2007 B1 (Christensen),e,12.3771,77.6669,46.7685,5.817638,0.0702399,0.58081439,344.4284,06/18.0/2020,2000,g 13.5,4.0
# From MPC 75707
P/2007 C2 (Catalina),e,8.6781,275.7078,179.7558,6.998680,0.0532329,0.46903964,247.6261,06/18.0/2020,2000,g 10.0,4.0
# From MPC 84315
C/2007 D1 (LINEAR),e,41.5008,171.1480,340.1716,1693,0.0000141,0.99478111,0.0000,06/10.9369/2007,2000,g  3.5,4.0
# From MPC 82314
P/2007 K2 (Gibbs),e,7.6407,188.6495,347.4936,7.260274,0.0503819,0.68363784,239.7269,06/18.0/2020,2000,g 14.0,4.0
# From MPC 60925
P/2007 Q2 (Gilmore),e,10.2006,172.1759,162.7815,5.657746,0.0732384,0.67046125,348.1348,06/18.0/2020,2000,g 16.0,4.0
# From MPC 75708
P/2007 R2 (Gibbs),e,1.2165,11.4311,352.3709,3.573774,0.1458859,0.54234278,346.8426,06/18.0/2020,2000,g 17.0,4.0
# From MPC 75708
P/2007 R4 (Garradd),e,20.2331,87.2195,282.7342,5.918457,0.0684528,0.66980583,323.1043,06/18.0/2020,2000,g 14.5,4.0
# From MPC 73462
P/2007 S1 (Zhao),e,5.9627,141.3921,245.8208,3.810805,0.1324887,0.33974897,248.3286,06/18.0/2020,2000,g 13.0,4.0
# From MPC 61994
P/2007 T2 (Kowalski),e,9.7413,3.3780,359.6343,3.047418,0.1852704,0.78507150,128.8407,06/18.0/2020,2000,g 18.5,4.0
# From MPC 75708
P/2007 VQ11 (Catalina),e,12.3201,163.8183,277.6815,5.425049,0.0780007,0.50317145,352.8195,06/18.0/2020,2000,g 12.0,4.0
# From MPC 75708
P/2008 CL94 (Lemmon),e,8.3485,33.3407,80.6504,6.158838,0.0644846,0.12007029,330.1750,06/18.0/2020,2000,g  8.0,4.0
# From MPC 75709
P/2008 L2 (Hill),e,25.8505,218.0038,141.1990,6.028889,0.0665807,0.61282647,289.5934,06/18.0/2020,2000,g 12.5,4.0
# From MPC 64114
P/2008 O3 (Boattini),e,32.2290,47.6099,341.0776,8.225074,0.0417825,0.69467558,184.2861,06/18.0/2020,2000,g 13.0,4.0
# From MPC 75709
P/2008 QP20 (LINEAR-Hill),e,7.5177,322.1161,75.7303,3.548439,0.1474511,0.49287342,276.9781,06/18.0/2020,2000,g 15.5,4.0
# From MPC 66204
P/2008 WZ96 (LINEAR),e,7.1228,56.5979,341.7925,3.491718,0.1510586,0.47125602,294.3800,06/18.0/2020,2000,g 13.5,4.0
# From MPC 75710
P/2008 Y3 (McNaught),e,38.7593,262.7805,238.3224,8.045045,0.0431928,0.44565862,180.9297,06/18.0/2020,2000,g  8.5,4.0
# From MPC 75710
P/2009 B1 (Boattini),e,22.2184,297.0928,128.9184,6.734731,0.0563928,0.63447840,235.5142,06/18.0/2020,2000,g 13.0,4.0
# From MPC 66466
C/2009 G1 (STEREO),e,108.7511,120.4308,175.3564,416.2283,0.0001161,0.99727905,0.0000,04/14.5690/2009,2000,g  9.0,4.0
# From MPC 75710
P/2009 O3 (Hill),e,16.2546,183.7312,154.3591,7.771954,0.0454892,0.68727642,184.1880,06/18.0/2020,2000,g 12.5,4.0
# From MPC 98557
P/2009 Q1 (Hill),e,14.5048,173.9561,157.1141,5.520025,0.0759963,0.49462226,306.4057,06/18.0/2020,2000,g 11.5,4.0
# From MPC112389
P/2009 Q4 (Boattini),e,11.0153,127.4651,320.2275,3.127833,0.1781717,0.58252758,325.7950,06/18.0/2020,2000,g 15.5,4.0
# From MPC 68902
P/2009 Q5 (McNaught),e,40.9621,160.2509,209.0170,7.439967,0.0485677,0.60829123,191.5262,06/18.0/2020,2000,g 10.0,4.0
# From MPC112389
P/2009 T2 (La Sagra),e,27.5298,215.7651,216.4565,7.725427,0.0459008,0.76484185,175.5745,06/18.0/2020,2000,g 14.0,4.0
# From MPC 75711
P/2009 U4 (McNaught),e,10.0818,55.3600,259.8527,5.080644,0.0860649,0.67593700,340.3652,06/18.0/2020,2000,g 14.0,4.0
# From MPC105235
P/2009 WX51 (Catalina),e,9.5957,31.6889,118.0676,3.078756,0.1824488,0.74017248,332.3839,06/18.0/2020,2000,g 19.0,2.0
# From MPC 74247
P/2009 Y2 (Kowalski),e,29.9272,262.0236,172.1981,6.548162,0.0588200,0.63574741,221.0376,06/18.0/2020,2000,g 13.0,4.0
# From MPC 75711
P/2010 A3 (Hill),e,14.8884,64.2409,41.8057,6.074473,0.0658326,0.73297188,246.0561,06/18.0/2020,2000,g 14.0,4.0
# From MPC 72851
P/2010 A5 (LINEAR),e,5.7985,277.6649,307.0889,5.084329,0.0859713,0.66513984,318.1805,06/18.0/2020,2000,g 13.0,4.0
# From MPC105235
P/2010 B2 (WISE),e,8.9305,0.8513,155.9261,3.109837,0.1797205,0.47990534,329.5227,06/18.0/2020,2000,g 17.0,4.0
# From MPC 75008
P/2010 C1 (Scotti),e,9.1284,141.8867,3.8639,7.101936,0.0520762,0.25859647,201.1833,06/18.0/2020,2000,g  9.5,4.0
# From MPC 75008
P/2010 D2 (WISE),e,57.0843,319.8922,120.1383,6.715040,0.0566410,0.45070820,213.6577,06/18.0/2020,2000,g 16.0,4.0
# From MPC 75009
P/2010 E2 (Jarnac),e,15.4154,177.8254,8.3749,8.636755,0.0388310,0.72059625,144.6975,06/18.0/2020,2000,g 14.0,4.0
# From MPC 72851
P/2010 H2 (Vales),e,14.2725,64.2144,128.2867,3.835462,0.1312132,0.19552875,132.8321,06/18.0/2020,2000,g  6.0,4.0
# From MPC 70361
P/2010 H3 (SOHO),e,23.1823,77.2780,25.9684,3.063053,0.1838537,0.98549584,0.0000,02/07.9231/2021,2000,g 20.0,2.0
# From MPC 73463
P/2010 H4 (Scotti),e,2.3195,44.7531,179.5725,6.587567,0.0582930,0.26797955,212.7056,06/18.0/2020,2000,g 10.5,4.0
# From MPC 74637
